{
"type": "FeatureCollection",
"name": "enriched_network",
"crs": { "type": "name", "properties": { "name": "urn:ogc:def:crs:EPSG::2154" } },
"features": [
{ "type": "Feature", "properties": { "id_0": 26097, "id": "TRONROUT0000000025417988", "importance": "5", "betweennes": 8.242518954e-06, "stroke_len": 121.19344653665171, "traffic_vo": 6 }, "geometry": { "type": "MultiLineString", "coordinates": [ [ [ 382367.200000000011642, 6271576.5 ], [ 382365.099999999976717, 6271555.099999999627471 ] ] ] } },
{ "type": "Feature", "properties": { "id_0": 26127, "id": "TRONROUT0000000025420581", "importance": "5", "betweennes": 2.77345153e-07, "stroke_len": 24.739246730126386, "traffic_vo": 0 }, "geometry": { "type": "MultiLineString", "coordinates": [ [ [ 382315.299999999988358, 6271487.299999999813735 ], [ 382327.299999999988358, 6271484.900000000372529 ], [ 382327.5, 6271497.400000000372529 ] ] ] } },
{ "type": "Feature", "properties": { "id_0": 26190, "id": "TRONROUT0000000025420548", "importance": "6", "betweennes": 1.0124e-11, "stroke_len": 30.237841963301989, "traffic_vo": 0 }, "geometry": { "type": "MultiLineString", "coordinates": [ [ [ 382356.400000000023283, 6271514.299999999813735 ], [ 382347.0, 6271518.200000000186265 ], [ 382328.200000000011642, 6271525.200000000186265 ] ] ] } },
{ "type": "Feature", "properties": { "id_0": 26073, "id": "TRONROUT0000000025420583", "importance": "3", "betweennes": 0.000140969406302, "stroke_len": 456.87077811824781, "traffic_vo": 0 }, "geometry": { "type": "MultiLineString", "coordinates": [ [ [ 382483.700000000011642, 6271544.900000000372529 ], [ 382469.5, 6271500.099999999627471 ], [ 382458.200000000011642, 6271497.900000000372529 ], [ 382457.0, 6271495.299999999813735 ] ] ] } },
{ "type": "Feature", "properties": { "id_0": 26074, "id": "TRONROUT0000002277330220", "importance": "3", "betweennes": 3.5616558465e-05, "stroke_len": 190.45802191186181, "traffic_vo": 0 }, "geometry": { "type": "MultiLineString", "coordinates": [ [ [ 382447.700000000011642, 6271475.099999999627471 ], [ 382425.900000000023283, 6271480.099999999627471 ] ] ] } },
{ "type": "Feature", "properties": { "id_0": 26075, "id": "TRONROUT0000002277330222", "importance": "5", "betweennes": 9.634063888e-06, "stroke_len": 121.19344653665171, "traffic_vo": 14 }, "geometry": { "type": "MultiLineString", "coordinates": [ [ [ 382374.599999999976717, 6271609.299999999813735 ], [ 382371.0, 6271601.299999999813735 ], [ 382370.0, 6271595.700000000186265 ] ] ] } },
{ "type": "Feature", "properties": { "id_0": 26076, "id": "TRONROUT0000002277330223", "importance": "6", "betweennes": 0.0, "stroke_len": 46.316170901577934, "traffic_vo": 0 }, "geometry": { "type": "MultiLineString", "coordinates": [ [ [ 382370.0, 6271595.700000000186265 ], [ 382351.700000000011642, 6271599.400000000372529 ], [ 382351.200000000011642, 6271612.0 ], [ 382364.400000000023283, 6271619.200000000186265 ] ] ] } },
{ "type": "Feature", "properties": { "id_0": 26077, "id": "TRONROUT0000002277330224", "importance": "3", "betweennes": 0.0010555323107639999, "stroke_len": 298.76187216488569, "traffic_vo": 0 }, "geometry": { "type": "MultiLineString", "coordinates": [ [ [ 382445.400000000023283, 6271557.5 ], [ 382452.700000000011642, 6271554.099999999627471 ], [ 382472.799999999988358, 6271547.799999999813735 ] ] ] } },
{ "type": "Feature", "properties": { "id_0": 26082, "id": "TRONROUT0000002277099284", "importance": "3", "betweennes": 0.001196869239384, "stroke_len": 298.76187216488569, "traffic_vo": 0 }, "geometry": { "type": "MultiLineString", "coordinates": [ [ [ 382495.200000000011642, 6271541.799999999813735 ], [ 382514.799999999988358, 6271538.599999999627471 ] ] ] } },
{ "type": "Feature", "properties": { "id_0": 26083, "id": "TRONROUT0000002277099286", "importance": "6", "betweennes": 1.9315145e-07, "stroke_len": 298.76187216488569, "traffic_vo": 0 }, "geometry": { "type": "MultiLineString", "coordinates": [ [ [ 382536.0, 6271501.700000000186265 ], [ 382507.700000000011642, 6271508.700000000186265 ], [ 382509.900000000023283, 6271520.5 ], [ 382514.799999999988358, 6271538.599999999627471 ] ] ] } },
{ "type": "Feature", "properties": { "id_0": 26084, "id": "TRONROUT0000002277099287", "importance": "5", "betweennes": 3.200605994e-06, "stroke_len": 34.481944362829793, "traffic_vo": 0 }, "geometry": { "type": "MultiLineString", "coordinates": [ [ [ 382446.900000000023283, 6271549.099999999627471 ], [ 382443.5, 6271547.5 ], [ 382441.5, 6271546.0 ], [ 382432.400000000023283, 6271537.400000000372529 ] ] ] } },
{ "type": "Feature", "properties": { "id_0": 26085, "id": "TRONROUT0000002277099288", "importance": "5", "betweennes": 0.00048456831137, "stroke_len": 72.139370432825473, "traffic_vo": 18 }, "geometry": { "type": "MultiLineString", "coordinates": [ [ [ 382446.900000000023283, 6271549.099999999627471 ], [ 382448.599999999976717, 6271539.599999999627471 ], [ 382449.400000000023283, 6271532.5 ] ] ] } },
{ "type": "Feature", "properties": { "id_0": 26086, "id": "TRONROUT0000002277099289", "importance": "6", "betweennes": 6.04542374e-07, "stroke_len": 18.349600391399179, "traffic_vo": 0 }, "geometry": { "type": "MultiLineString", "coordinates": [ [ [ 382449.400000000023283, 6271532.5 ], [ 382442.799999999988358, 6271532.299999999813735 ], [ 382439.900000000023283, 6271532.900000000372529 ], [ 382436.099999999976717, 6271534.700000000186265 ], [ 382432.400000000023283, 6271537.400000000372529 ] ] ] } },
{ "type": "Feature", "properties": { "id_0": 26087, "id": "TRONROUT0000000025417973", "importance": "3", "betweennes": 0.001537172501627, "stroke_len": 298.76187216488569, "traffic_vo": 16 }, "geometry": { "type": "MultiLineString", "coordinates": [ [ [ 382378.5, 6271605.599999999627471 ], [ 382389.0, 6271598.599999999627471 ], [ 382401.799999999988358, 6271590.200000000186265 ], [ 382414.099999999976717, 6271581.799999999813735 ], [ 382423.099999999976717, 6271574.700000000186265 ], [ 382431.400000000023283, 6271566.299999999813735 ], [ 382442.0, 6271559.099999999627471 ], [ 382445.400000000023283, 6271557.5 ] ] ] } },
{ "type": "Feature", "properties": { "id_0": 26091, "id": "TRONROUT0000002277330221", "importance": "3", "betweennes": 0.001531474118744, "stroke_len": 298.76187216488569, "traffic_vo": 0 }, "geometry": { "type": "MultiLineString", "coordinates": [ [ [ 382319.700000000011642, 6271665.599999999627471 ], [ 382348.900000000023283, 6271635.099999999627471 ], [ 382364.400000000023283, 6271619.200000000186265 ] ] ] } },
{ "type": "Feature", "properties": { "id_0": 26092, "id": "TRONROUT0000000025417992", "importance": "5", "betweennes": 2.953087038e-06, "stroke_len": 228.3260809869021, "traffic_vo": 18 }, "geometry": { "type": "MultiLineString", "coordinates": [ [ [ 382399.0, 6271633.900000000372529 ], [ 382389.5, 6271625.5 ], [ 382378.5, 6271605.599999999627471 ] ] ] } },
{ "type": "Feature", "properties": { "id_0": 26098, "id": "TRONROUT0000000025417965", "importance": "5", "betweennes": 1.537881608e-06, "stroke_len": 228.3260809869021, "traffic_vo": 0 }, "geometry": { "type": "MultiLineString", "coordinates": [ [ [ 382547.5, 6271543.200000000186265 ], [ 382542.0, 6271554.099999999627471 ], [ 382535.200000000011642, 6271560.5 ], [ 382523.900000000023283, 6271567.299999999813735 ], [ 382507.5, 6271577.099999999627471 ], [ 382493.900000000023283, 6271585.299999999813735 ], [ 382474.200000000011642, 6271597.299999999813735 ], [ 382461.200000000011642, 6271607.599999999627471 ], [ 382448.200000000011642, 6271622.200000000186265 ], [ 382434.400000000023283, 6271640.099999999627471 ], [ 382430.400000000023283, 6271646.5 ] ] ] } },
{ "type": "Feature", "properties": { "id_0": 26100, "id": "TRONROUT0000000025417969", "importance": "5", "betweennes": 3.308369074e-06, "stroke_len": 79.596109462823179, "traffic_vo": 0 }, "geometry": { "type": "MultiLineString", "coordinates": [ [ [ 382365.099999999976717, 6271555.099999999627471 ], [ 382374.0, 6271552.299999999813735 ], [ 382385.400000000023283, 6271545.200000000186265 ] ] ] } },
{ "type": "Feature", "properties": { "id_0": 26104, "id": "TRONROUT0000000025417977", "importance": "3", "betweennes": 0.0010557539216290001, "stroke_len": 298.76187216488569, "traffic_vo": 0 }, "geometry": { "type": "MultiLineString", "coordinates": [ [ [ 382472.799999999988358, 6271547.799999999813735 ], [ 382483.700000000011642, 6271544.900000000372529 ] ] ] } },
{ "type": "Feature", "properties": { "id_0": 26108, "id": "TRONROUT0000000025417987", "importance": "6", "betweennes": 6.3408509e-07, "stroke_len": 11.07393204601313, "traffic_vo": 0 }, "geometry": { "type": "MultiLineString", "coordinates": [ [ [ 382399.0, 6271633.900000000372529 ], [ 382397.900000000023283, 6271639.900000000372529 ], [ 382400.400000000023283, 6271644.200000000186265 ] ] ] } },
{ "type": "Feature", "properties": { "id_0": 26109, "id": "TRONROUT0000000025417990", "importance": "5", "betweennes": 3.330561546e-06, "stroke_len": 121.19344653665171, "traffic_vo": 16 }, "geometry": { "type": "MultiLineString", "coordinates": [ [ [ 382365.099999999976717, 6271555.099999999627471 ], [ 382364.5, 6271552.099999999627471 ] ] ] } },
{ "type": "Feature", "properties": { "id_0": 26110, "id": "TRONROUT0000000025417991", "importance": "5", "betweennes": 3.317531568e-06, "stroke_len": 228.3260809869021, "traffic_vo": 18 }, "geometry": { "type": "MultiLineString", "coordinates": [ [ [ 382430.400000000023283, 6271646.5 ], [ 382417.299999999988358, 6271641.400000000372529 ], [ 382399.0, 6271633.900000000372529 ] ] ] } },
{ "type": "Feature", "properties": { "id_0": 26111, "id": "TRONROUT0000000025417996", "importance": "3", "betweennes": 0.0015353515647590001, "stroke_len": 298.76187216488569, "traffic_vo": 14 }, "geometry": { "type": "MultiLineString", "coordinates": [ [ [ 382374.599999999976717, 6271609.299999999813735 ], [ 382378.5, 6271605.599999999627471 ] ] ] } },
{ "type": "Feature", "properties": { "id_0": 26113, "id": "TRONROUT0000000025417998", "importance": "3", "betweennes": 0.001531694372953, "stroke_len": 298.76187216488569, "traffic_vo": 0 }, "geometry": { "type": "MultiLineString", "coordinates": [ [ [ 382364.400000000023283, 6271619.200000000186265 ], [ 382368.700000000011642, 6271615.0 ], [ 382374.599999999976717, 6271609.299999999813735 ] ] ] } },
{ "type": "Feature", "properties": { "id_0": 26118, "id": "TRONROUT0000000025420531", "importance": "5", "betweennes": 6.2653236e-07, "stroke_len": 26.295436866497894, "traffic_vo": 4 }, "geometry": { "type": "MultiLineString", "coordinates": [ [ [ 382289.200000000011642, 6271490.5 ], [ 382315.299999999988358, 6271487.299999999813735 ] ] ] } },
{ "type": "Feature", "properties": { "id_0": 26119, "id": "TRONROUT0000000025420525", "importance": "5", "betweennes": 5.504421488e-06, "stroke_len": 121.19344653665171, "traffic_vo": 12 }, "geometry": { "type": "MultiLineString", "coordinates": [ [ [ 382356.400000000023283, 6271514.299999999813735 ], [ 382355.0, 6271506.700000000186265 ], [ 382349.900000000023283, 6271492.799999999813735 ], [ 382349.200000000011642, 6271491.400000000372529 ] ] ] } },
{ "type": "Feature", "properties": { "id_0": 26120, "id": "TRONROUT0000000025420528", "importance": "5", "betweennes": 1.36900824e-07, "stroke_len": 121.85612634472993, "traffic_vo": 0 }, "geometry": { "type": "MultiLineString", "coordinates": [ [ [ 382327.5, 6271497.400000000372529 ], [ 382328.200000000011642, 6271525.200000000186265 ] ] ] } },
{ "type": "Feature", "properties": { "id_0": 26121, "id": "TRONROUT0000000025420533", "importance": "3", "betweennes": 0.000140850901337, "stroke_len": 456.87077811824781, "traffic_vo": 0 }, "geometry": { "type": "MultiLineString", "coordinates": [ [ [ 382457.0, 6271495.299999999813735 ], [ 382453.0, 6271486.599999999627471 ] ] ] } },
{ "type": "Feature", "properties": { "id_0": 26122, "id": "TRONROUT0000000025420541", "importance": "5", "betweennes": 0.00048520934173100001, "stroke_len": 72.139370432825473, "traffic_vo": 18 }, "geometry": { "type": "MultiLineString", "coordinates": [ [ [ 382449.099999999976717, 6271497.799999999813735 ], [ 382450.099999999976717, 6271491.900000000372529 ], [ 382453.0, 6271486.599999999627471 ] ] ] } },
{ "type": "Feature", "properties": { "id_0": 26123, "id": "TRONROUT0000000025420543", "importance": "5", "betweennes": 0.00048495881585699997, "stroke_len": 72.139370432825473, "traffic_vo": 18 }, "geometry": { "type": "MultiLineString", "coordinates": [ [ [ 382449.400000000023283, 6271532.5 ], [ 382449.799999999988358, 6271528.200000000186265 ], [ 382448.599999999976717, 6271500.900000000372529 ], [ 382449.099999999976717, 6271497.799999999813735 ] ] ] } },
{ "type": "Feature", "properties": { "id_0": 26124, "id": "TRONROUT0000000025420552", "importance": "5", "betweennes": 3.89917277e-07, "stroke_len": 24.719627828890907, "traffic_vo": 4 }, "geometry": { "type": "MultiLineString", "coordinates": [ [ [ 382340.400000000023283, 6271557.599999999627471 ], [ 382364.5, 6271552.099999999627471 ] ] ] } },
{ "type": "Feature", "properties": { "id_0": 26126, "id": "TRONROUT0000000025420574", "importance": "5", "betweennes": 1.197522794e-06, "stroke_len": 86.561634464120175, "traffic_vo": 0 }, "geometry": { "type": "MultiLineString", "coordinates": [ [ [ 382375.599999999976717, 6271518.099999999627471 ], [ 382373.900000000023283, 6271490.599999999627471 ], [ 382374.400000000023283, 6271487.599999999627471 ], [ 382395.299999999988358, 6271471.5 ] ] ] } },
{ "type": "Feature", "properties": { "id_0": 26128, "id": "TRONROUT0000000025420588", "importance": "5", "betweennes": 6.89232167e-07, "stroke_len": 73.704649253024954, "traffic_vo": 4 }, "geometry": { "type": "MultiLineString", "coordinates": [ [ [ 382334.599999999976717, 6271466.200000000186265 ], [ 382327.700000000011642, 6271468.700000000186265 ], [ 382318.599999999976717, 6271474.799999999813735 ], [ 382316.200000000011642, 6271480.099999999627471 ], [ 382315.299999999988358, 6271487.299999999813735 ] ] ] } },
{ "type": "Feature", "properties": { "id_0": 26129, "id": "TRONROUT0000000025420593", "importance": "3", "betweennes": 3.547532444e-05, "stroke_len": 190.45802191186181, "traffic_vo": 0 }, "geometry": { "type": "MultiLineString", "coordinates": [ [ [ 382395.299999999988358, 6271471.5 ], [ 382387.0, 6271467.799999999813735 ] ] ] } },
{ "type": "Feature", "properties": { "id_0": 26130, "id": "TRONROUT0000000025420595", "importance": "5", "betweennes": 2.0082800056000001e-05, "stroke_len": 121.85612634472993, "traffic_vo": 2 }, "geometry": { "type": "MultiLineString", "coordinates": [ [ [ 382327.5, 6271497.400000000372529 ], [ 382349.200000000011642, 6271491.400000000372529 ] ] ] } },
{ "type": "Feature", "properties": { "id_0": 26131, "id": "TRONROUT0000000025420596", "importance": "6", "betweennes": 2.5473373758000001e-05, "stroke_len": 41.60464043187477, "traffic_vo": 14 }, "geometry": { "type": "MultiLineString", "coordinates": [ [ [ 382349.200000000011642, 6271491.400000000372529 ], [ 382355.5, 6271486.599999999627471 ], [ 382368.700000000011642, 6271475.299999999813735 ], [ 382382.299999999988358, 6271466.299999999813735 ] ] ] } },
{ "type": "Feature", "properties": { "id_0": 26132, "id": "TRONROUT0000000025420607", "importance": "3", "betweennes": 0.00062519212459299998, "stroke_len": 456.87077811824781, "traffic_vo": 18 }, "geometry": { "type": "MultiLineString", "coordinates": [ [ [ 382449.799999999988358, 6271479.400000000372529 ], [ 382447.700000000011642, 6271475.099999999627471 ] ] ] } },
{ "type": "Feature", "properties": { "id_0": 26133, "id": "TRONROUT0000000025420618", "importance": "5", "betweennes": 0.00050135978155399995, "stroke_len": 440.09205145504086, "traffic_vo": 16 }, "geometry": { "type": "MultiLineString", "coordinates": [ [ [ 382287.599999999976717, 6271493.5 ], [ 382289.200000000011642, 6271490.5 ] ] ] } },
{ "type": "Feature", "properties": { "id_0": 26135, "id": "TRONROUT0000000025420624", "importance": "5", "betweennes": 0.00052029179259800002, "stroke_len": 440.09205145504086, "traffic_vo": 0 }, "geometry": { "type": "MultiLineString", "coordinates": [ [ [ 382277.0, 6271508.200000000186265 ], [ 382284.799999999988358, 6271498.900000000372529 ], [ 382285.900000000023283, 6271496.900000000372529 ] ] ] } },
{ "type": "Feature", "properties": { "id_0": 26136, "id": "TRONROUT0000000025420625", "importance": "5", "betweennes": 0.000520071558638, "stroke_len": 440.09205145504086, "traffic_vo": 0 }, "geometry": { "type": "MultiLineString", "coordinates": [ [ [ 382264.900000000023283, 6271523.700000000186265 ], [ 382274.599999999976717, 6271510.900000000372529 ], [ 382277.0, 6271508.200000000186265 ] ] ] } },
{ "type": "Feature", "properties": { "id_0": 26147, "id": "TRONROUT0000000291602857", "importance": "5", "betweennes": 3.17042545e-07, "stroke_len": 34.481944362829793, "traffic_vo": 0 }, "geometry": { "type": "MultiLineString", "coordinates": [ [ [ 382432.400000000023283, 6271537.400000000372529 ], [ 382421.0, 6271526.599999999627471 ] ] ] } },
{ "type": "Feature", "properties": { "id_0": 26150, "id": "TRONROUT0000002277330225", "importance": "5", "betweennes": 4.66365888e-07, "stroke_len": 61.738760349603808, "traffic_vo": 12 }, "geometry": { "type": "MultiLineString", "coordinates": [ [ [ 382328.200000000011642, 6271525.200000000186265 ], [ 382316.900000000023283, 6271530.400000000372529 ], [ 382312.900000000023283, 6271530.599999999627471 ], [ 382309.400000000023283, 6271526.299999999813735 ], [ 382302.200000000011642, 6271516.700000000186265 ], [ 382300.799999999988358, 6271512.799999999813735 ], [ 382295.700000000011642, 6271502.900000000372529 ] ] ] } },
{ "type": "Feature", "properties": { "id_0": 26151, "id": "TRONROUT0000002277330226", "importance": "6", "betweennes": 1.9568617086000001e-05, "stroke_len": 32.553345038678216, "traffic_vo": 2 }, "geometry": { "type": "MultiLineString", "coordinates": [ [ [ 382295.700000000011642, 6271502.900000000372529 ], [ 382311.5, 6271499.400000000372529 ], [ 382325.299999999988358, 6271496.700000000186265 ], [ 382327.5, 6271497.400000000372529 ] ] ] } },
{ "type": "Feature", "properties": { "id_0": 26152, "id": "TRONROUT0000002277330227", "importance": "3", "betweennes": 0.001196745753262, "stroke_len": 298.76187216488569, "traffic_vo": 0 }, "geometry": { "type": "MultiLineString", "coordinates": [ [ [ 382483.700000000011642, 6271544.900000000372529 ], [ 382495.200000000011642, 6271541.799999999813735 ] ] ] } },
{ "type": "Feature", "properties": { "id_0": 26156, "id": "TRONROUT0000000357986146", "importance": "5", "betweennes": 9.197665937e-06, "stroke_len": 121.19344653665171, "traffic_vo": 14 }, "geometry": { "type": "MultiLineString", "coordinates": [ [ [ 382369.700000000011642, 6271592.900000000372529 ], [ 382367.599999999976717, 6271579.700000000186265 ] ] ] } },
{ "type": "Feature", "properties": { "id_0": 26158, "id": "TRONROUT0000000025420554", "importance": "3", "betweennes": 3.5328916896e-05, "stroke_len": 190.45802191186181, "traffic_vo": 0 }, "geometry": { "type": "MultiLineString", "coordinates": [ [ [ 382395.299999999988358, 6271471.5 ], [ 382414.599999999976717, 6271476.900000000372529 ], [ 382425.900000000023283, 6271480.099999999627471 ] ] ] } },
{ "type": "Feature", "properties": { "id_0": 26166, "id": "TRONROUT0000000291602833", "importance": "6", "betweennes": 6.22897735e-07, "stroke_len": 79.596109462823179, "traffic_vo": 0 }, "geometry": { "type": "MultiLineString", "coordinates": [ [ [ 382399.900000000023283, 6271536.0 ], [ 382400.099999999976717, 6271531.900000000372529 ], [ 382398.5, 6271525.799999999813735 ] ] ] } },
{ "type": "Feature", "properties": { "id_0": 26168, "id": "TRONROUT0000000291602909", "importance": "5", "betweennes": 9.00946527e-06, "stroke_len": 121.19344653665171, "traffic_vo": 14 }, "geometry": { "type": "MultiLineString", "coordinates": [ [ [ 382367.599999999976717, 6271579.700000000186265 ], [ 382367.200000000011642, 6271576.5 ] ] ] } },
{ "type": "Feature", "properties": { "id_0": 26192, "id": "TRONROUT0000000290868318", "importance": "5", "betweennes": 7.86840571e-07, "stroke_len": 121.85612634472993, "traffic_vo": 12 }, "geometry": { "type": "MultiLineString", "coordinates": [ [ [ 382328.200000000011642, 6271525.200000000186265 ], [ 382328.200000000011642, 6271527.400000000372529 ], [ 382330.5, 6271543.0 ], [ 382332.400000000023283, 6271549.299999999813735 ], [ 382340.400000000023283, 6271557.599999999627471 ] ] ] } },
{ "type": "Feature", "properties": { "id_0": 26193, "id": "TRONROUT0000000290868319", "importance": "5", "betweennes": 1.9917044969e-05, "stroke_len": 61.738760349603808, "traffic_vo": 14 }, "geometry": { "type": "MultiLineString", "coordinates": [ [ [ 382295.700000000011642, 6271502.900000000372529 ], [ 382291.599999999976717, 6271497.200000000186265 ], [ 382287.599999999976717, 6271493.5 ] ] ] } },
{ "type": "Feature", "properties": { "id_0": 26194, "id": "TRONROUT0000000291602832", "importance": "5", "betweennes": 2.961712944e-06, "stroke_len": 79.596109462823179, "traffic_vo": 0 }, "geometry": { "type": "MultiLineString", "coordinates": [ [ [ 382385.400000000023283, 6271545.200000000186265 ], [ 382399.900000000023283, 6271536.0 ] ] ] } },
{ "type": "Feature", "properties": { "id_0": 26195, "id": "TRONROUT0000000291602834", "importance": "5", "betweennes": 2.755764374e-06, "stroke_len": 121.19344653665171, "traffic_vo": 12 }, "geometry": { "type": "MultiLineString", "coordinates": [ [ [ 382364.5, 6271552.099999999627471 ], [ 382362.799999999988358, 6271545.099999999627471 ], [ 382357.0, 6271517.799999999813735 ], [ 382356.400000000023283, 6271514.299999999813735 ] ] ] } },
{ "type": "Feature", "properties": { "id_0": 26196, "id": "TRONROUT0000000291602835", "importance": "5", "betweennes": 5.81904432e-07, "stroke_len": 121.85612634472993, "traffic_vo": 8 }, "geometry": { "type": "MultiLineString", "coordinates": [ [ [ 382340.400000000023283, 6271557.599999999627471 ], [ 382345.799999999988358, 6271566.099999999627471 ], [ 382354.200000000011642, 6271575.099999999627471 ], [ 382367.200000000011642, 6271576.5 ] ] ] } },
{ "type": "Feature", "properties": { "id_0": 26210, "id": "TRONROUT0000000224161371", "importance": "3", "betweennes": 0.00062537583006900003, "stroke_len": 456.87077811824781, "traffic_vo": 18 }, "geometry": { "type": "MultiLineString", "coordinates": [ [ [ 382453.0, 6271486.599999999627471 ], [ 382450.700000000011642, 6271481.5 ], [ 382449.799999999988358, 6271479.400000000372529 ] ] ] } },
{ "type": "Feature", "properties": { "id_0": 26215, "id": "TRONROUT0000000025420572", "importance": "5", "betweennes": 1.33367442e-07, "stroke_len": 86.561634464120175, "traffic_vo": 0 }, "geometry": { "type": "MultiLineString", "coordinates": [ [ [ 382385.400000000023283, 6271545.200000000186265 ], [ 382376.900000000023283, 6271531.5 ], [ 382375.599999999976717, 6271518.099999999627471 ] ] ] } },
{ "type": "Feature", "properties": { "id_0": 26221, "id": "TRONROUT0000000357986145", "importance": "5", "betweennes": 9.415773794e-06, "stroke_len": 121.19344653665171, "traffic_vo": 14 }, "geometry": { "type": "MultiLineString", "coordinates": [ [ [ 382370.0, 6271595.700000000186265 ], [ 382369.700000000011642, 6271592.900000000372529 ] ] ] } },
{ "type": "Feature", "properties": { "id_0": 26224, "id": "TRONROUT0000000291602856", "importance": "5", "betweennes": 0.00048798619502899999, "stroke_len": 72.139370432825473, "traffic_vo": 18 }, "geometry": { "type": "MultiLineString", "coordinates": [ [ [ 382445.400000000023283, 6271557.5 ], [ 382446.900000000023283, 6271549.099999999627471 ] ] ] } },
{ "type": "Feature", "properties": { "id_0": 349419, "id": "TRONROUT0000000025420556", "importance": "5", "betweennes": 6.915445581e-06, "stroke_len": 59.433991465761324, "traffic_vo": 6 }, "geometry": { "type": "MultiLineString", "coordinates": [ [ [ 382387.0, 6271467.799999999813735 ], [ 382392.099999999976717, 6271453.299999999813735 ], [ 382396.200000000011642, 6271444.5 ] ] ] } },
{ "type": "Feature", "properties": { "id_0": 349170, "id": "TRONROUT0000000025420599", "importance": "3", "betweennes": 0.00050569639507700001, "stroke_len": 101.24053393178586, "traffic_vo": 8 }, "geometry": { "type": "MultiLineString", "coordinates": [ [ [ 382377.900000000023283, 6271283.900000000372529 ], [ 382387.200000000011642, 6271272.0 ], [ 382394.200000000011642, 6271266.0 ] ] ] } },
{ "type": "Feature", "properties": { "id_0": 349160, "id": "TRONROUT0000000025420523", "importance": "5", "betweennes": 9.400334232e-06, "stroke_len": 440.09205145504086, "traffic_vo": 0 }, "geometry": { "type": "MultiLineString", "coordinates": [ [ [ 382364.200000000011642, 6271306.700000000186265 ], [ 382364.400000000023283, 6271299.0 ], [ 382361.400000000023283, 6271294.400000000372529 ], [ 382354.099999999976717, 6271291.200000000186265 ], [ 382346.799999999988358, 6271288.700000000186265 ], [ 382306.700000000011642, 6271282.200000000186265 ], [ 382294.599999999976717, 6271278.5 ] ] ] } },
{ "type": "Feature", "properties": { "id_0": 349162, "id": "TRONROUT0000002277330215", "importance": "3", "betweennes": 0.00053063483104399999, "stroke_len": 25.486482433788041, "traffic_vo": 18 }, "geometry": { "type": "MultiLineString", "coordinates": [ [ [ 382458.900000000023283, 6271227.200000000186265 ], [ 382452.799999999988358, 6271242.099999999627471 ] ] ] } },
{ "type": "Feature", "properties": { "id_0": 349164, "id": "TRONROUT0000002277330217", "importance": "5", "betweennes": 0.0, "stroke_len": 43.135099624032222, "traffic_vo": 0 }, "geometry": { "type": "MultiLineString", "coordinates": [ [ [ 382483.400000000023283, 6271233.5 ], [ 382480.400000000023283, 6271248.0 ], [ 382464.799999999988358, 6271245.900000000372529 ], [ 382452.799999999988358, 6271242.099999999627471 ] ] ] } },
{ "type": "Feature", "properties": { "id_0": 349165, "id": "TRONROUT0000000025420544", "importance": "3", "betweennes": 0.00055548276586800003, "stroke_len": 456.87077811824781, "traffic_vo": 24 }, "geometry": { "type": "MultiLineString", "coordinates": [ [ [ 382451.900000000023283, 6271276.0 ], [ 382451.700000000011642, 6271270.099999999627471 ], [ 382450.0, 6271257.299999999813735 ], [ 382448.900000000023283, 6271253.400000000372529 ], [ 382445.5, 6271248.0 ] ] ] } },
{ "type": "Feature", "properties": { "id_0": 349166, "id": "TRONROUT0000000224716393", "importance": "3", "betweennes": 0.00053088588338300003, "stroke_len": 25.486482433788041, "traffic_vo": 32 }, "geometry": { "type": "MultiLineString", "coordinates": [ [ [ 382452.799999999988358, 6271242.099999999627471 ], [ 382449.099999999976717, 6271245.099999999627471 ], [ 382445.5, 6271248.0 ] ] ] } },
{ "type": "Feature", "properties": { "id_0": 349169, "id": "TRONROUT0000002275761396", "importance": "5", "betweennes": 0.00047379886766, "stroke_len": 148.54369929167504, "traffic_vo": 0 }, "geometry": { "type": "MultiLineString", "coordinates": [ [ [ 382394.200000000011642, 6271266.0 ], [ 382387.900000000023283, 6271254.400000000372529 ], [ 382382.0, 6271246.099999999627471 ], [ 382369.0, 6271231.099999999627471 ], [ 382362.0, 6271201.700000000186265 ] ] ] } },
{ "type": "Feature", "properties": { "id_0": 349173, "id": "TRONROUT0000002277330218", "importance": "6", "betweennes": 3.488126072e-06, "stroke_len": 49.585807781613241, "traffic_vo": 0 }, "geometry": { "type": "MultiLineString", "coordinates": [ [ [ 382492.5, 6271442.700000000186265 ], [ 382480.799999999988358, 6271445.200000000186265 ], [ 382473.400000000023283, 6271445.900000000372529 ], [ 382465.5, 6271446.400000000372529 ] ] ] } },
{ "type": "Feature", "properties": { "id_0": 349176, "id": "TRONROUT0000002277099282", "importance": "5", "betweennes": 1.1525800006e-05, "stroke_len": 158.0188427738087, "traffic_vo": 0 }, "geometry": { "type": "MultiLineString", "coordinates": [ [ [ 382603.700000000011642, 6271426.200000000186265 ], [ 382586.099999999976717, 6271427.0 ], [ 382568.200000000011642, 6271428.799999999813735 ], [ 382554.0, 6271429.599999999627471 ], [ 382543.799999999988358, 6271428.700000000186265 ], [ 382537.700000000011642, 6271426.900000000372529 ], [ 382526.400000000023283, 6271418.900000000372529 ], [ 382516.099999999976717, 6271415.5 ], [ 382477.599999999976717, 6271415.200000000186265 ] ] ] } },
{ "type": "Feature", "properties": { "id_0": 349177, "id": "TRONROUT0000002277099283", "importance": "6", "betweennes": 3.17042545e-07, "stroke_len": 18.870872843100432, "traffic_vo": 0 }, "geometry": { "type": "MultiLineString", "coordinates": [ [ [ 382477.599999999976717, 6271415.200000000186265 ], [ 382477.799999999988358, 6271421.299999999813735 ], [ 382479.400000000023283, 6271428.900000000372529 ], [ 382480.400000000023283, 6271433.799999999813735 ] ] ] } },
{ "type": "Feature", "properties": { "id_0": 349179, "id": "TRONROUT0000002277330212", "importance": "5", "betweennes": 8.16666768e-07, "stroke_len": 59.433991465761324, "traffic_vo": 0 }, "geometry": { "type": "MultiLineString", "coordinates": [ [ [ 382396.200000000011642, 6271444.5 ], [ 382397.0, 6271442.099999999627471 ], [ 382397.400000000023283, 6271440.400000000372529 ], [ 382394.900000000023283, 6271429.700000000186265 ] ] ] } },
{ "type": "Feature", "properties": { "id_0": 349180, "id": "TRONROUT0000002277330219", "importance": "6", "betweennes": 3.17042545e-07, "stroke_len": 24.508161905083725, "traffic_vo": 0 }, "geometry": { "type": "MultiLineString", "coordinates": [ [ [ 382465.5, 6271446.400000000372529 ], [ 382473.400000000023283, 6271469.599999999627471 ] ] ] } },
{ "type": "Feature", "properties": { "id_0": 349187, "id": "TRONROUT0000000025420546", "importance": "3", "betweennes": 8.7772178119000004e-05, "stroke_len": 456.87077811824781, "traffic_vo": 8 }, "geometry": { "type": "MultiLineString", "coordinates": [ [ [ 382445.5, 6271248.0 ], [ 382439.099999999976717, 6271243.299999999813735 ] ] ] } },
{ "type": "Feature", "properties": { "id_0": 349189, "id": "TRONROUT0000000025420521", "importance": "5", "betweennes": 6.754924759e-06, "stroke_len": 48.62171819291548, "traffic_vo": 6 }, "geometry": { "type": "MultiLineString", "coordinates": [ [ [ 382396.200000000011642, 6271444.5 ], [ 382399.200000000011642, 6271445.799999999813735 ], [ 382408.900000000023283, 6271447.400000000372529 ], [ 382417.799999999988358, 6271447.799999999813735 ], [ 382424.900000000023283, 6271446.5 ], [ 382443.099999999976717, 6271439.799999999813735 ] ] ] } },
{ "type": "Feature", "properties": { "id_0": 349190, "id": "TRONROUT0000000025420527", "importance": "3", "betweennes": 9.268546181000001e-06, "stroke_len": 92.416389057052612, "traffic_vo": 0 }, "geometry": { "type": "MultiLineString", "coordinates": [ [ [ 382408.099999999976717, 6271345.900000000372529 ], [ 382403.5, 6271336.299999999813735 ], [ 382392.599999999976717, 6271323.400000000372529 ], [ 382380.900000000023283, 6271314.599999999627471 ], [ 382369.5, 6271308.5 ], [ 382364.200000000011642, 6271306.700000000186265 ] ] ] } },
{ "type": "Feature", "properties": { "id_0": 349192, "id": "TRONROUT0000000025420536", "importance": "3", "betweennes": 0.00058949626246300002, "stroke_len": 456.87077811824781, "traffic_vo": 18 }, "geometry": { "type": "MultiLineString", "coordinates": [ [ [ 382447.700000000011642, 6271475.099999999627471 ], [ 382443.599999999976717, 6271454.099999999627471 ], [ 382443.299999999988358, 6271448.200000000186265 ] ] ] } },
{ "type": "Feature", "properties": { "id_0": 349195, "id": "TRONROUT0000000025420545", "importance": "3", "betweennes": 0.00055977823422400004, "stroke_len": 456.87077811824781, "traffic_vo": 16 }, "geometry": { "type": "MultiLineString", "coordinates": [ [ [ 382449.400000000023283, 6271413.099999999627471 ], [ 382453.5, 6271395.0 ], [ 382454.799999999988358, 6271381.200000000186265 ], [ 382453.299999999988358, 6271366.400000000372529 ], [ 382451.799999999988358, 6271340.200000000186265 ] ] ] } },
{ "type": "Feature", "properties": { "id_0": 349196, "id": "TRONROUT0000000025420550", "importance": "6", "betweennes": 8.7848576e-08, "stroke_len": 69.155140388817827, "traffic_vo": 0 }, "geometry": { "type": "MultiLineString", "coordinates": [ [ [ 382406.799999999988358, 6271312.099999999627471 ], [ 382377.900000000023283, 6271283.900000000372529 ] ] ] } },
{ "type": "Feature", "properties": { "id_0": 349198, "id": "TRONROUT0000000025420553", "importance": "3", "betweennes": 3.1564012631999997e-05, "stroke_len": 101.24053393178586, "traffic_vo": 8 }, "geometry": { "type": "MultiLineString", "coordinates": [ [ [ 382420.400000000023283, 6271253.200000000186265 ], [ 382439.099999999976717, 6271243.299999999813735 ] ] ] } },
{ "type": "Feature", "properties": { "id_0": 349199, "id": "TRONROUT0000000025420560", "importance": "5", "betweennes": 3.549408477e-06, "stroke_len": 27.560823059853828, "traffic_vo": 4 }, "geometry": { "type": "MultiLineString", "coordinates": [ [ [ 382389.400000000023283, 6271365.799999999813735 ], [ 382389.900000000023283, 6271363.099999999627471 ], [ 382393.5, 6271351.299999999813735 ] ] ] } },
{ "type": "Feature", "properties": { "id_0": 349200, "id": "TRONROUT0000000025420563", "importance": "5", "betweennes": 2.58686063e-07, "stroke_len": 43.34736015206316, "traffic_vo": 0 }, "geometry": { "type": "MultiLineString", "coordinates": [ [ [ 382419.700000000011642, 6271345.900000000372529 ], [ 382431.299999999988358, 6271342.0 ], [ 382451.799999999988358, 6271340.200000000186265 ] ] ] } },
{ "type": "Feature", "properties": { "id_0": 349201, "id": "TRONROUT0000000025420568", "importance": "3", "betweennes": 1.2733325611e-05, "stroke_len": 92.416389057052612, "traffic_vo": 8 }, "geometry": { "type": "MultiLineString", "coordinates": [ [ [ 382411.099999999976717, 6271353.700000000186265 ], [ 382409.700000000011642, 6271349.200000000186265 ] ] ] } },
{ "type": "Feature", "properties": { "id_0": 349202, "id": "TRONROUT0000000025420569", "importance": "5", "betweennes": 7.06726963e-07, "stroke_len": 30.394810050196902, "traffic_vo": 6 }, "geometry": { "type": "MultiLineString", "coordinates": [ [ [ 382356.0, 6271408.5 ], [ 382366.0, 6271405.0 ] ] ] } },
{ "type": "Feature", "properties": { "id_0": 349203, "id": "TRONROUT0000000025420571", "importance": "5", "betweennes": 1.0054516062e-05, "stroke_len": 73.704649253024954, "traffic_vo": 4 }, "geometry": { "type": "MultiLineString", "coordinates": [ [ [ 382352.099999999976717, 6271460.099999999627471 ], [ 382345.0, 6271463.799999999813735 ], [ 382334.599999999976717, 6271466.200000000186265 ] ] ] } },
{ "type": "Feature", "properties": { "id_0": 349204, "id": "TRONROUT0000000025420573", "importance": "5", "betweennes": 9.469149118e-06, "stroke_len": 76.444167072662921, "traffic_vo": 0 }, "geometry": { "type": "MultiLineString", "coordinates": [ [ [ 382332.700000000011642, 6271441.700000000186265 ], [ 382334.599999999976717, 6271466.200000000186265 ] ] ] } },
{ "type": "Feature", "properties": { "id_0": 349206, "id": "TRONROUT0000000025420577", "importance": "5", "betweennes": 9.97787509e-06, "stroke_len": 56.099557759053887, "traffic_vo": 4 }, "geometry": { "type": "MultiLineString", "coordinates": [ [ [ 382411.099999999976717, 6271353.700000000186265 ], [ 382400.099999999976717, 6271355.099999999627471 ], [ 382393.5, 6271351.299999999813735 ] ] ] } },
{ "type": "Feature", "properties": { "id_0": 349207, "id": "TRONROUT0000000025420580", "importance": "3", "betweennes": 4.49010808e-06, "stroke_len": 190.45802191186181, "traffic_vo": 12 }, "geometry": { "type": "MultiLineString", "coordinates": [ [ [ 382383.900000000023283, 6271405.200000000186265 ], [ 382387.299999999988358, 6271378.099999999627471 ] ] ] } },
{ "type": "Feature", "properties": { "id_0": 349208, "id": "TRONROUT0000000025420582", "importance": "5", "betweennes": 1.953524738e-06, "stroke_len": 56.928810188123727, "traffic_vo": 8 }, "geometry": { "type": "MultiLineString", "coordinates": [ [ [ 382425.900000000023283, 6271333.599999999627471 ], [ 382432.700000000011642, 6271329.299999999813735 ], [ 382436.700000000011642, 6271324.0 ], [ 382451.599999999976717, 6271309.799999999813735 ] ] ] } },
{ "type": "Feature", "properties": { "id_0": 349209, "id": "TRONROUT0000000025420584", "importance": "5", "betweennes": 2.707532195e-06, "stroke_len": 76.444167072662921, "traffic_vo": 0 }, "geometry": { "type": "MultiLineString", "coordinates": [ [ [ 382328.0, 6271397.400000000372529 ], [ 382337.599999999976717, 6271402.099999999627471 ], [ 382338.0, 6271404.5 ], [ 382336.200000000011642, 6271408.5 ] ] ] } },
{ "type": "Feature", "properties": { "id_0": 349210, "id": "TRONROUT0000000025420585", "importance": "3", "betweennes": 1.8514788523e-05, "stroke_len": 92.416389057052612, "traffic_vo": 4 }, "geometry": { "type": "MultiLineString", "coordinates": [ [ [ 382415.400000000023283, 6271376.599999999627471 ], [ 382413.0, 6271360.599999999627471 ], [ 382411.099999999976717, 6271353.700000000186265 ] ] ] } },
{ "type": "Feature", "properties": { "id_0": 349211, "id": "TRONROUT0000000025420586", "importance": "5", "betweennes": 2.433366073e-06, "stroke_len": 56.928810188123727, "traffic_vo": 8 }, "geometry": { "type": "MultiLineString", "coordinates": [ [ [ 382408.099999999976717, 6271345.900000000372529 ], [ 382415.599999999976717, 6271340.099999999627471 ], [ 382425.900000000023283, 6271333.599999999627471 ] ] ] } },
{ "type": "Feature", "properties": { "id_0": 349212, "id": "TRONROUT0000000025420587", "importance": "3", "betweennes": 4.7766461e-08, "stroke_len": 190.45802191186181, "traffic_vo": 8 }, "geometry": { "type": "MultiLineString", "coordinates": [ [ [ 382415.400000000023283, 6271376.599999999627471 ], [ 382387.299999999988358, 6271378.099999999627471 ] ] ] } },
{ "type": "Feature", "properties": { "id_0": 349213, "id": "TRONROUT0000000025420589", "importance": "6", "betweennes": 4.122170664e-06, "stroke_len": 49.585807781613241, "traffic_vo": 0 }, "geometry": { "type": "MultiLineString", "coordinates": [ [ [ 382465.5, 6271446.400000000372529 ], [ 382443.299999999988358, 6271448.200000000186265 ] ] ] } },
{ "type": "Feature", "properties": { "id_0": 349214, "id": "TRONROUT0000000025420591", "importance": "5", "betweennes": 4.61283488e-07, "stroke_len": 76.444167072662921, "traffic_vo": 6 }, "geometry": { "type": "MultiLineString", "coordinates": [ [ [ 382336.200000000011642, 6271408.5 ], [ 382331.0, 6271420.299999999813735 ], [ 382332.700000000011642, 6271441.700000000186265 ] ] ] } },
{ "type": "Feature", "properties": { "id_0": 349215, "id": "TRONROUT0000000025420592", "importance": "3", "betweennes": 2.741944701e-06, "stroke_len": 190.45802191186181, "traffic_vo": 12 }, "geometry": { "type": "MultiLineString", "coordinates": [ [ [ 382377.099999999976717, 6271427.299999999813735 ], [ 382379.099999999976717, 6271423.5 ], [ 382382.599999999976717, 6271415.099999999627471 ] ] ] } },
{ "type": "Feature", "properties": { "id_0": 349216, "id": "TRONROUT0000000025420594", "importance": "5", "betweennes": 5.86035148e-07, "stroke_len": 48.827337283416504, "traffic_vo": 0 }, "geometry": { "type": "MultiLineString", "coordinates": [ [ [ 382294.599999999976717, 6271278.5 ], [ 382289.0, 6271285.099999999627471 ], [ 382280.900000000023283, 6271291.299999999813735 ], [ 382265.099999999976717, 6271303.200000000186265 ], [ 382258.200000000011642, 6271310.700000000186265 ] ] ] } },
{ "type": "Feature", "properties": { "id_0": 349217, "id": "TRONROUT0000000025420601", "importance": "3", "betweennes": 1.7996272351e-05, "stroke_len": 190.45802191186181, "traffic_vo": 8 }, "geometry": { "type": "MultiLineString", "coordinates": [ [ [ 382382.299999999988358, 6271466.299999999813735 ], [ 382373.799999999988358, 6271455.700000000186265 ], [ 382372.700000000011642, 6271450.299999999813735 ] ] ] } },
{ "type": "Feature", "properties": { "id_0": 349221, "id": "TRONROUT0000000025420611", "importance": "5", "betweennes": 1.8679824784e-05, "stroke_len": 76.844014872854075, "traffic_vo": 6 }, "geometry": { "type": "MultiLineString", "coordinates": [ [ [ 382420.900000000023283, 6271404.900000000372529 ], [ 382422.700000000011642, 6271399.700000000186265 ], [ 382423.5, 6271391.200000000186265 ], [ 382423.599999999976717, 6271382.0 ], [ 382421.700000000011642, 6271376.200000000186265 ], [ 382415.400000000023283, 6271376.599999999627471 ] ] ] } },
{ "type": "Feature", "properties": { "id_0": 349223, "id": "TRONROUT0000000025420615", "importance": "5", "betweennes": 0.000504310580499, "stroke_len": 440.09205145504086, "traffic_vo": 8 }, "geometry": { "type": "MultiLineString", "coordinates": [ [ [ 382362.599999999976717, 6271317.599999999627471 ], [ 382364.200000000011642, 6271306.700000000186265 ] ] ] } },
{ "type": "Feature", "properties": { "id_0": 349224, "id": "TRONROUT0000000025420616", "importance": "5", "betweennes": 0.00050272530702899997, "stroke_len": 440.09205145504086, "traffic_vo": 8 }, "geometry": { "type": "MultiLineString", "coordinates": [ [ [ 382354.900000000023283, 6271349.200000000186265 ], [ 382357.299999999988358, 6271344.599999999627471 ], [ 382359.0, 6271337.0 ] ] ] } },
{ "type": "Feature", "properties": { "id_0": 349225, "id": "TRONROUT0000000025420617", "importance": "5", "betweennes": 0.00050867766817399998, "stroke_len": 440.09205145504086, "traffic_vo": 8 }, "geometry": { "type": "MultiLineString", "coordinates": [ [ [ 382300.900000000023283, 6271444.799999999813735 ], [ 382304.0, 6271437.400000000372529 ] ] ] } },
{ "type": "Feature", "properties": { "id_0": 349226, "id": "TRONROUT0000000025420619", "importance": "5", "betweennes": 0.00050931500316500004, "stroke_len": 440.09205145504086, "traffic_vo": 8 }, "geometry": { "type": "MultiLineString", "coordinates": [ [ [ 382359.0, 6271337.0 ], [ 382361.5, 6271325.900000000372529 ], [ 382362.599999999976717, 6271317.599999999627471 ] ] ] } },
{ "type": "Feature", "properties": { "id_0": 349227, "id": "TRONROUT0000000025420620", "importance": "5", "betweennes": 0.00050209717503, "stroke_len": 440.09205145504086, "traffic_vo": 8 }, "geometry": { "type": "MultiLineString", "coordinates": [ [ [ 382304.0, 6271437.400000000372529 ], [ 382306.099999999976717, 6271432.0 ], [ 382314.0, 6271418.400000000372529 ], [ 382328.0, 6271397.400000000372529 ] ] ] } },
{ "type": "Feature", "properties": { "id_0": 349228, "id": "TRONROUT0000000025420621", "importance": "5", "betweennes": 0.00050095963873099999, "stroke_len": 440.09205145504086, "traffic_vo": 14 }, "geometry": { "type": "MultiLineString", "coordinates": [ [ [ 382296.5, 6271464.900000000372529 ], [ 382298.0, 6271455.900000000372529 ], [ 382300.900000000023283, 6271444.799999999813735 ] ] ] } },
{ "type": "Feature", "properties": { "id_0": 349269, "id": "TRONROUT0000002277330211", "importance": "6", "betweennes": 3.17042545e-07, "stroke_len": 15.575621977256427, "traffic_vo": 0 }, "geometry": { "type": "MultiLineString", "coordinates": [ [ [ 382419.700000000011642, 6271345.900000000372529 ], [ 382426.099999999976717, 6271360.099999999627471 ] ] ] } },
{ "type": "Feature", "properties": { "id_0": 349229, "id": "TRONROUT0000000025420626", "importance": "5", "betweennes": 1.2157252777000001e-05, "stroke_len": 158.0188427738087, "traffic_vo": 18 }, "geometry": { "type": "MultiLineString", "coordinates": [ [ [ 382477.599999999976717, 6271415.200000000186265 ], [ 382460.599999999976717, 6271415.200000000186265 ], [ 382449.400000000023283, 6271413.099999999627471 ] ] ] } },
{ "type": "Feature", "properties": { "id_0": 349272, "id": "TRONROUT0000000291602822", "importance": "5", "betweennes": 2.71311069e-07, "stroke_len": 69.155140388817827, "traffic_vo": 0 }, "geometry": { "type": "MultiLineString", "coordinates": [ [ [ 382425.900000000023283, 6271333.599999999627471 ], [ 382420.599999999976717, 6271328.299999999813735 ], [ 382406.799999999988358, 6271312.099999999627471 ] ] ] } },
{ "type": "Feature", "properties": { "id_0": 349273, "id": "TRONROUT0000000291602823", "importance": "5", "betweennes": 5.68459358e-07, "stroke_len": 24.188818265100405, "traffic_vo": 0 }, "geometry": { "type": "MultiLineString", "coordinates": [ [ [ 382373.900000000023283, 6271361.099999999627471 ], [ 382373.299999999988358, 6271356.900000000372529 ], [ 382354.900000000023283, 6271349.200000000186265 ] ] ] } },
{ "type": "Feature", "properties": { "id_0": 349276, "id": "TRONROUT0000000291602854", "importance": "3", "betweennes": 0.00059220264048799999, "stroke_len": 456.87077811824781, "traffic_vo": 24 }, "geometry": { "type": "MultiLineString", "coordinates": [ [ [ 382443.099999999976717, 6271439.799999999813735 ], [ 382444.0, 6271434.900000000372529 ] ] ] } },
{ "type": "Feature", "properties": { "id_0": 349277, "id": "TRONROUT0000000291602855", "importance": "5", "betweennes": 0.00052051208730500003, "stroke_len": 440.09205145504086, "traffic_vo": 0 }, "geometry": { "type": "MultiLineString", "coordinates": [ [ [ 382285.900000000023283, 6271496.900000000372529 ], [ 382287.599999999976717, 6271493.5 ] ] ] } },
{ "type": "Feature", "properties": { "id_0": 349284, "id": "TRONROUT0000000291602866", "importance": "5", "betweennes": 8.714908802000001e-06, "stroke_len": 440.09205145504086, "traffic_vo": 0 }, "geometry": { "type": "MultiLineString", "coordinates": [ [ [ 382294.599999999976717, 6271278.5 ], [ 382283.900000000023283, 6271275.200000000186265 ], [ 382233.200000000011642, 6271253.900000000372529 ], [ 382187.900000000023283, 6271234.599999999627471 ] ] ] } },
{ "type": "Feature", "properties": { "id_0": 349286, "id": "TRONROUT0000000291602870", "importance": "5", "betweennes": 0.00050051904931800004, "stroke_len": 440.09205145504086, "traffic_vo": 12 }, "geometry": { "type": "MultiLineString", "coordinates": [ [ [ 382289.200000000011642, 6271490.5 ], [ 382291.700000000011642, 6271486.0 ], [ 382295.700000000011642, 6271470.400000000372529 ], [ 382296.5, 6271464.900000000372529 ] ] ] } },
{ "type": "Feature", "properties": { "id_0": 349287, "id": "TRONROUT0000000291602871", "importance": "5", "betweennes": 3.17042545e-07, "stroke_len": 26.239283526799859, "traffic_vo": 0 }, "geometry": { "type": "MultiLineString", "coordinates": [ [ [ 382296.5, 6271464.900000000372529 ], [ 382270.400000000023283, 6271462.200000000186265 ] ] ] } },
{ "type": "Feature", "properties": { "id_0": 349288, "id": "TRONROUT0000000291602876", "importance": "5", "betweennes": 2.46273668e-07, "stroke_len": 24.600812994493388, "traffic_vo": 0 }, "geometry": { "type": "MultiLineString", "coordinates": [ [ [ 382342.400000000023283, 6271373.900000000372529 ], [ 382364.599999999976717, 6271384.5 ] ] ] } },
{ "type": "Feature", "properties": { "id_0": 349289, "id": "TRONROUT0000000291602878", "importance": "5", "betweennes": 7.14836529e-07, "stroke_len": 62.694949235655827, "traffic_vo": 0 }, "geometry": { "type": "MultiLineString", "coordinates": [ [ [ 382366.0, 6271405.0 ], [ 382364.099999999976717, 6271400.099999999627471 ], [ 382363.599999999976717, 6271391.400000000372529 ], [ 382364.599999999976717, 6271384.5 ] ] ] } },
{ "type": "Feature", "properties": { "id_0": 349294, "id": "TRONROUT0000002275761394", "importance": "5", "betweennes": 8.01632178e-07, "stroke_len": 148.54369929167504, "traffic_vo": 0 }, "geometry": { "type": "MultiLineString", "coordinates": [ [ [ 382410.700000000011642, 6271257.900000000372529 ], [ 382408.400000000023283, 6271253.799999999813735 ], [ 382399.099999999976717, 6271239.900000000372529 ], [ 382385.599999999976717, 6271224.400000000372529 ], [ 382372.599999999976717, 6271208.599999999627471 ], [ 382362.0, 6271201.700000000186265 ] ] ] } },
{ "type": "Feature", "properties": { "id_0": 349295, "id": "TRONROUT0000002275761395", "importance": "3", "betweennes": 3.1689624858e-05, "stroke_len": 101.24053393178586, "traffic_vo": 8 }, "geometry": { "type": "MultiLineString", "coordinates": [ [ [ 382394.200000000011642, 6271266.0 ], [ 382410.700000000011642, 6271257.900000000372529 ] ] ] } },
{ "type": "Feature", "properties": { "id_0": 349296, "id": "TRONROUT0000002277330210", "importance": "5", "betweennes": 7.62572617e-07, "stroke_len": 43.34736015206316, "traffic_vo": 0 }, "geometry": { "type": "MultiLineString", "coordinates": [ [ [ 382409.700000000011642, 6271349.200000000186265 ], [ 382419.700000000011642, 6271345.900000000372529 ] ] ] } },
{ "type": "Feature", "properties": { "id_0": 349297, "id": "TRONROUT0000002277330208", "importance": "5", "betweennes": 4.246223748e-06, "stroke_len": 77.544046777219151, "traffic_vo": 0 }, "geometry": { "type": "MultiLineString", "coordinates": [ [ [ 382451.900000000023283, 6271276.0 ], [ 382436.799999999988358, 6271280.299999999813735 ] ] ] } },
{ "type": "Feature", "properties": { "id_0": 349298, "id": "TRONROUT0000002277330209", "importance": "6", "betweennes": 3.17042545e-07, "stroke_len": 27.900671685434254, "traffic_vo": 0 }, "geometry": { "type": "MultiLineString", "coordinates": [ [ [ 382436.799999999988358, 6271280.299999999813735 ], [ 382432.900000000023283, 6271287.700000000186265 ], [ 382416.299999999988358, 6271298.0 ] ] ] } },
{ "type": "Feature", "properties": { "id_0": 349302, "id": "TRONROUT0000000025420555", "importance": "5", "betweennes": 3.17042545e-07, "stroke_len": 80.761251088446883, "traffic_vo": 0 }, "geometry": { "type": "MultiLineString", "coordinates": [ [ [ 382323.900000000023283, 6271357.5 ], [ 382311.0, 6271375.799999999813735 ] ] ] } },
{ "type": "Feature", "properties": { "id_0": 349306, "id": "TRONROUT0000000290868331", "importance": "5", "betweennes": 4.122170664e-06, "stroke_len": 80.761251088446883, "traffic_vo": 0 }, "geometry": { "type": "MultiLineString", "coordinates": [ [ [ 382362.599999999976717, 6271317.599999999627471 ], [ 382357.299999999988358, 6271318.900000000372529 ], [ 382344.299999999988358, 6271325.599999999627471 ], [ 382341.700000000011642, 6271334.099999999627471 ], [ 382323.900000000023283, 6271357.5 ] ] ] } },
{ "type": "Feature", "properties": { "id_0": 349308, "id": "TRONROUT0000000025420514", "importance": "5", "betweennes": 1.0046335626e-05, "stroke_len": 77.107939748478756, "traffic_vo": 0 }, "geometry": { "type": "MultiLineString", "coordinates": [ [ [ 382231.5, 6271420.299999999813735 ], [ 382235.099999999976717, 6271425.5 ], [ 382240.099999999976717, 6271429.200000000186265 ], [ 382245.900000000023283, 6271430.400000000372529 ], [ 382290.700000000011642, 6271434.200000000186265 ], [ 382304.0, 6271437.400000000372529 ] ] ] } },
{ "type": "Feature", "properties": { "id_0": 349309, "id": "TRONROUT0000000025420542", "importance": "3", "betweennes": 0.00057089119553100005, "stroke_len": 456.87077811824781, "traffic_vo": 26 }, "geometry": { "type": "MultiLineString", "coordinates": [ [ [ 382444.0, 6271434.900000000372529 ], [ 382445.900000000023283, 6271428.799999999813735 ], [ 382449.400000000023283, 6271413.099999999627471 ] ] ] } },
{ "type": "Feature", "properties": { "id_0": 349310, "id": "TRONROUT0000000025420600", "importance": "3", "betweennes": 0.00050584643724600005, "stroke_len": 101.24053393178586, "traffic_vo": 8 }, "geometry": { "type": "MultiLineString", "coordinates": [ [ [ 382364.200000000011642, 6271306.700000000186265 ], [ 382377.900000000023283, 6271283.900000000372529 ] ] ] } },
{ "type": "Feature", "properties": { "id_0": 349320, "id": "TRONROUT0000000291602828", "importance": "5", "betweennes": 5.406711841e-06, "stroke_len": 29.292384829978719, "traffic_vo": 0 }, "geometry": { "type": "MultiLineString", "coordinates": [ [ [ 382377.099999999976717, 6271427.299999999813735 ], [ 382367.400000000023283, 6271422.900000000372529 ], [ 382362.5, 6271419.099999999627471 ], [ 382358.900000000023283, 6271413.599999999627471 ], [ 382356.0, 6271408.5 ] ] ] } },
{ "type": "Feature", "properties": { "id_0": 349324, "id": "TRONROUT0000000025420579", "importance": "3", "betweennes": 3.8395092396999998e-05, "stroke_len": 190.45802191186181, "traffic_vo": 6 }, "geometry": { "type": "MultiLineString", "coordinates": [ [ [ 382387.0, 6271467.799999999813735 ], [ 382382.299999999988358, 6271466.299999999813735 ] ] ] } },
{ "type": "Feature", "properties": { "id_0": 349326, "id": "TRONROUT0000000025420519", "importance": "5", "betweennes": 9.343820373e-06, "stroke_len": 31.950743340287875, "traffic_vo": 6 }, "geometry": { "type": "MultiLineString", "coordinates": [ [ [ 382332.700000000011642, 6271441.700000000186265 ], [ 382300.900000000023283, 6271444.799999999813735 ] ] ] } },
{ "type": "Feature", "properties": { "id_0": 349330, "id": "TRONROUT0000000290868332", "importance": "5", "betweennes": 3.488126072e-06, "stroke_len": 25.808271993637224, "traffic_vo": 0 }, "geometry": { "type": "MultiLineString", "coordinates": [ [ [ 382323.900000000023283, 6271357.5 ], [ 382320.400000000023283, 6271350.700000000186265 ], [ 382315.200000000011642, 6271333.299999999813735 ] ] ] } },
{ "type": "Feature", "properties": { "id_0": 349337, "id": "TRONROUT0000000025420605", "importance": "3", "betweennes": 0.00058693842820999997, "stroke_len": 456.87077811824781, "traffic_vo": 18 }, "geometry": { "type": "MultiLineString", "coordinates": [ [ [ 382443.299999999988358, 6271448.200000000186265 ], [ 382443.099999999976717, 6271439.799999999813735 ] ] ] } },
{ "type": "Feature", "properties": { "id_0": 349340, "id": "TRONROUT0000000290868324", "importance": "5", "betweennes": 4.229255416e-06, "stroke_len": 27.560823059853828, "traffic_vo": 4 }, "geometry": { "type": "MultiLineString", "coordinates": [ [ [ 382387.299999999988358, 6271378.099999999627471 ], [ 382389.400000000023283, 6271365.799999999813735 ] ] ] } },
{ "type": "Feature", "properties": { "id_0": 349345, "id": "TRONROUT0000000025420547", "importance": "3", "betweennes": 0.000557638432437, "stroke_len": 456.87077811824781, "traffic_vo": 16 }, "geometry": { "type": "MultiLineString", "coordinates": [ [ [ 382451.799999999988358, 6271340.200000000186265 ], [ 382451.700000000011642, 6271337.0 ], [ 382451.299999999988358, 6271314.599999999627471 ], [ 382451.599999999976717, 6271309.799999999813735 ] ] ] } },
{ "type": "Feature", "properties": { "id_0": 349346, "id": "TRONROUT0000000025420558", "importance": "5", "betweennes": 6.03378079e-07, "stroke_len": 59.433991465761324, "traffic_vo": 0 }, "geometry": { "type": "MultiLineString", "coordinates": [ [ [ 382394.900000000023283, 6271429.700000000186265 ], [ 382382.599999999976717, 6271415.099999999627471 ] ] ] } },
{ "type": "Feature", "properties": { "id_0": 349348, "id": "TRONROUT0000000025420578", "importance": "5", "betweennes": 8.922214028e-06, "stroke_len": 56.099557759053887, "traffic_vo": 0 }, "geometry": { "type": "MultiLineString", "coordinates": [ [ [ 382393.5, 6271351.299999999813735 ], [ 382382.799999999988358, 6271345.900000000372529 ], [ 382359.0, 6271337.0 ] ] ] } },
{ "type": "Feature", "properties": { "id_0": 349357, "id": "TRONROUT0000000025420534", "importance": "3", "betweennes": 5.5960818643e-05, "stroke_len": 456.87077811824781, "traffic_vo": 0 }, "geometry": { "type": "MultiLineString", "coordinates": [ [ [ 382439.099999999976717, 6271243.299999999813735 ], [ 382419.700000000011642, 6271225.400000000372529 ], [ 382395.200000000011642, 6271201.200000000186265 ], [ 382379.400000000023283, 6271181.099999999627471 ], [ 382366.900000000023283, 6271159.799999999813735 ], [ 382354.900000000023283, 6271139.0 ] ] ] } },
{ "type": "Feature", "properties": { "id_0": 349360, "id": "TRONROUT0000000290868323", "importance": "6", "betweennes": 1.082024746e-06, "stroke_len": 17.90111728359177, "traffic_vo": 6 }, "geometry": { "type": "MultiLineString", "coordinates": [ [ [ 382366.0, 6271405.0 ], [ 382383.900000000023283, 6271405.200000000186265 ] ] ] } },
{ "type": "Feature", "properties": { "id_0": 349361, "id": "TRONROUT0000000290868327", "importance": "3", "betweennes": 0.00055937891146999998, "stroke_len": 456.87077811824781, "traffic_vo": 24 }, "geometry": { "type": "MultiLineString", "coordinates": [ [ [ 382451.599999999976717, 6271309.799999999813735 ], [ 382452.599999999976717, 6271289.200000000186265 ], [ 382451.900000000023283, 6271276.0 ] ] ] } },
{ "type": "Feature", "properties": { "id_0": 349362, "id": "TRONROUT0000000290868328", "importance": "5", "betweennes": 3.17042545e-07, "stroke_len": 77.544046777219151, "traffic_vo": 0 }, "geometry": { "type": "MultiLineString", "coordinates": [ [ [ 382451.900000000023283, 6271276.0 ], [ 382470.799999999988358, 6271276.200000000186265 ], [ 382474.400000000023283, 6271280.099999999627471 ], [ 382475.900000000023283, 6271284.799999999813735 ] ] ] } },
{ "type": "Feature", "properties": { "id_0": 349363, "id": "TRONROUT0000000290868329", "importance": "3", "betweennes": 3.2672188453e-05, "stroke_len": 101.24053393178586, "traffic_vo": 8 }, "geometry": { "type": "MultiLineString", "coordinates": [ [ [ 382410.700000000011642, 6271257.900000000372529 ], [ 382420.400000000023283, 6271253.200000000186265 ] ] ] } },
{ "type": "Feature", "properties": { "id_0": 349364, "id": "TRONROUT0000000290868330", "importance": "5", "betweennes": 1.289147735e-06, "stroke_len": 77.544046777219151, "traffic_vo": 0 }, "geometry": { "type": "MultiLineString", "coordinates": [ [ [ 382436.799999999988358, 6271280.299999999813735 ], [ 382432.200000000011642, 6271278.200000000186265 ], [ 382420.400000000023283, 6271253.200000000186265 ] ] ] } },
{ "type": "Feature", "properties": { "id_0": 349368, "id": "TRONROUT0000000291602824", "importance": "5", "betweennes": 3.13812892e-07, "stroke_len": 62.694949235655827, "traffic_vo": 0 }, "geometry": { "type": "MultiLineString", "coordinates": [ [ [ 382364.599999999976717, 6271384.5 ], [ 382364.900000000023283, 6271382.599999999627471 ], [ 382369.599999999976717, 6271372.700000000186265 ], [ 382372.5, 6271362.200000000186265 ], [ 382373.900000000023283, 6271361.099999999627471 ] ] ] } },
{ "type": "Feature", "properties": { "id_0": 349369, "id": "TRONROUT0000000291602825", "importance": "5", "betweennes": 2.1031811711e-05, "stroke_len": 41.14870446572035, "traffic_vo": 12 }, "geometry": { "type": "MultiLineString", "coordinates": [ [ [ 382428.700000000011642, 6271429.599999999627471 ], [ 382417.799999999988358, 6271420.799999999813735 ], [ 382410.599999999976717, 6271412.599999999627471 ] ] ] } },
{ "type": "Feature", "properties": { "id_0": 349370, "id": "TRONROUT0000000291602826", "importance": "5", "betweennes": 2.11651589e-06, "stroke_len": 76.844014872854075, "traffic_vo": 6 }, "geometry": { "type": "MultiLineString", "coordinates": [ [ [ 382382.599999999976717, 6271415.099999999627471 ], [ 382403.200000000011642, 6271413.700000000186265 ], [ 382410.599999999976717, 6271412.599999999627471 ] ] ] } },
{ "type": "Feature", "properties": { "id_0": 349371, "id": "TRONROUT0000000291602827", "importance": "5", "betweennes": 1.8893032479e-05, "stroke_len": 76.844014872854075, "traffic_vo": 6 }, "geometry": { "type": "MultiLineString", "coordinates": [ [ [ 382410.599999999976717, 6271412.599999999627471 ], [ 382416.900000000023283, 6271409.299999999813735 ], [ 382420.900000000023283, 6271404.900000000372529 ] ] ] } },
{ "type": "Feature", "properties": { "id_0": 349372, "id": "TRONROUT0000000291602829", "importance": "6", "betweennes": 2.1319635518000001e-05, "stroke_len": 41.14870446572035, "traffic_vo": 18 }, "geometry": { "type": "MultiLineString", "coordinates": [ [ [ 382444.0, 6271434.900000000372529 ], [ 382430.5, 6271430.599999999627471 ], [ 382428.700000000011642, 6271429.599999999627471 ] ] ] } },
{ "type": "Feature", "properties": { "id_0": 349373, "id": "TRONROUT0000000291602830", "importance": "5", "betweennes": 1.0456855859e-05, "stroke_len": 73.704649253024954, "traffic_vo": 4 }, "geometry": { "type": "MultiLineString", "coordinates": [ [ [ 382372.700000000011642, 6271450.299999999813735 ], [ 382362.5, 6271452.599999999627471 ], [ 382353.599999999976717, 6271457.400000000372529 ] ] ] } },
{ "type": "Feature", "properties": { "id_0": 349374, "id": "TRONROUT0000000291602831", "importance": "6", "betweennes": 1.0235568971e-05, "stroke_len": 73.704649253024954, "traffic_vo": 4 }, "geometry": { "type": "MultiLineString", "coordinates": [ [ [ 382353.599999999976717, 6271457.400000000372529 ], [ 382352.099999999976717, 6271460.099999999627471 ] ] ] } },
{ "type": "Feature", "properties": { "id_0": 349379, "id": "TRONROUT0000000291602920", "importance": "5", "betweennes": 0.00050236942765799996, "stroke_len": 440.09205145504086, "traffic_vo": 8 }, "geometry": { "type": "MultiLineString", "coordinates": [ [ [ 382342.400000000023283, 6271373.900000000372529 ], [ 382346.5, 6271366.799999999813735 ], [ 382354.900000000023283, 6271349.200000000186265 ] ] ] } },
{ "type": "Feature", "properties": { "id_0": 349380, "id": "TRONROUT0000000291602921", "importance": "3", "betweennes": 8.360811309000001e-06, "stroke_len": 190.45802191186181, "traffic_vo": 12 }, "geometry": { "type": "MultiLineString", "coordinates": [ [ [ 382372.700000000011642, 6271450.299999999813735 ], [ 382371.099999999976717, 6271442.5 ], [ 382374.0, 6271433.400000000372529 ], [ 382377.099999999976717, 6271427.299999999813735 ] ] ] } },
{ "type": "Feature", "properties": { "id_0": 349381, "id": "TRONROUT0000000291602922", "importance": "5", "betweennes": 2.817795978e-06, "stroke_len": 30.394810050196902, "traffic_vo": 6 }, "geometry": { "type": "MultiLineString", "coordinates": [ [ [ 382336.200000000011642, 6271408.5 ], [ 382356.0, 6271408.5 ] ] ] } },
{ "type": "Feature", "properties": { "id_0": 349382, "id": "TRONROUT0000000291602923", "importance": "3", "betweennes": 1.1912771111e-05, "stroke_len": 92.416389057052612, "traffic_vo": 8 }, "geometry": { "type": "MultiLineString", "coordinates": [ [ [ 382409.700000000011642, 6271349.200000000186265 ], [ 382408.099999999976717, 6271345.900000000372529 ] ] ] } },
{ "type": "Feature", "properties": { "id_0": 349388, "id": "TRONROUT0000000025420566", "importance": "3", "betweennes": 5.027475704e-06, "stroke_len": 190.45802191186181, "traffic_vo": 14 }, "geometry": { "type": "MultiLineString", "coordinates": [ [ [ 382382.599999999976717, 6271415.099999999627471 ], [ 382383.900000000023283, 6271405.200000000186265 ] ] ] } },
{ "type": "Feature", "properties": { "id_0": 349399, "id": "TRONROUT0000000291602877", "importance": "5", "betweennes": 0.00050239413095699999, "stroke_len": 440.09205145504086, "traffic_vo": 8 }, "geometry": { "type": "MultiLineString", "coordinates": [ [ [ 382328.0, 6271397.400000000372529 ], [ 382334.200000000011642, 6271388.099999999627471 ], [ 382342.400000000023283, 6271373.900000000372529 ] ] ] } },
{ "type": "Feature", "properties": { "id_0": 349408, "id": "TRONROUT0000000290868322", "importance": "5", "betweennes": 4.6742894e-07, "stroke_len": 62.694949235655827, "traffic_vo": 0 }, "geometry": { "type": "MultiLineString", "coordinates": [ [ [ 382373.900000000023283, 6271361.099999999627471 ], [ 382389.400000000023283, 6271365.799999999813735 ] ] ] } },
{ "type": "Feature", "properties": { "id_0": 349420, "id": "TRONROUT0000000025420557", "importance": "5", "betweennes": 8.43435425e-07, "stroke_len": 79.596109462823179, "traffic_vo": 0 }, "geometry": { "type": "MultiLineString", "coordinates": [ [ [ 382398.5, 6271525.799999999813735 ], [ 382392.599999999976717, 6271523.900000000372529 ], [ 382391.0, 6271516.5 ], [ 382375.599999999976717, 6271518.099999999627471 ] ] ] } }
]
}
